1 42732U 98067MM 17250.53960184 .00034797 00000-0 46774-3 0 9990
2 42732 51.6399 346.3549 0006399 207.2086 152.8572 15.57534609 16168
1 42732U 98067MM  17250.09046781  .00028250  00000-0  38174-3 0  9991
2 42732  51.6400 348.6048 0006515 205.2880 154.7794 15.57503143 16098
1 42732U 98067MM  17249.76965309  .00025075  00000-0  33998-3 0  9990
2 42732  51.6399 350.2124 0006548 203.8535 156.2154 15.57482664 16042
1 42732U 98067MM 17249.51299865 .00027585 00000-0 37340-3 0 9993
2 42732 51.6400 351.4982 0006551 202.6580 157.4124 15.57469625 16009
1 42732U 98067MM  17248.55052270  .00025915  00000-0  35199-3 0  9998
2 42732  51.6401 356.3197 0006661 198.6966 161.3782 15.57414502 15856
1 42732U 98067MM  17247.71634943  .00024197  00000-0  32982-3 0  9996
2 42732  51.6400   0.4984 0006732 195.5398 164.5388 15.57361356 15721
1 42732U 98067MM  17247.58801233  .00024429  00000-0  33299-3 0  9999
2 42732  51.6400   1.1412 0006754 194.9628 165.1165 15.57354723 15706
1 42732U 98067MM 17247.13882834 .00026314 00000-0 35837-3 0 9991
2 42732 51.6399 3.3907 0006860 193.2549 166.8263 15.57331923 15634 
1 42732U 98067MM 17246.75380829 .00024009 00000-0 32794-3 0 9993
2 42732 51.6397 5.3198 0006859 191.6052 168.4783 15.57309418 15577
1 42732U 98067MM 17245.72706279 .00027097 00000-0 36980-3 0 9991
2 42732 51.6396 10.4625 0006951 187.3801 172.7090 15.57258359 15414
1 42732U 98067MM 17245.53454402 .00027757 00000-0 37874-3 0 9994
2 42732 51.6395 11.4265 0006991 186.5495 173.5407 15.57248477 15385
1 42732U 98067MM 17244.76445669 .00024315 00000-0 33331-3 0 9994
2 42732 51.6394 15.2833 0007092 183.5108 176.5836 15.57202550 15266
1 42732U 98067MM  17244.18687648  .00025661  00000-0  35170-3 0  9993
2 42732  51.6393  18.1754 0007141 181.2428 178.8547 15.57174540 15175
1 42732U 98067MM  17243.86599374  .00025664  00000-0  35192-3 0  9992
2 42732  51.6392  19.7823 0007185 179.9958 180.1035 15.57160213 15123
1 42732U 98067MM 17243.41675274 .00016790 00000-0 23308-3 0 9993
2 42732 51.6392 22.0321 0007218 178.2094 181.8925 15.57131550 15053
1 42732U 98067MM 17242.45407350 .00021564 00000-0 29755-3 0 9991
2 42732 51.6393 26.8527 0007320 174.6021 185.5051 15.57102996 14904 
1 42732U 98067MM 17242.00481650 .00021132 00000-0 29193-3 0 9994
2 42732 51.6394 29.1023 0007355 172.9056 187.2041 15.57084979 14839 
1 42732U 98067MM 17241.68391580 .00020251 00000-0 28022-3 0 9990
2 42732 51.6394 30.7092 0007366 171.5970 188.5146 15.57070823 14782 
1 42732U 98067MM 17240.84956103 .00018437 00000-0 25611-3 0 9999
2 42732 51.6394 34.8866 0007468 168.4280 191.6885 15.57035862 14653
1 42732U 98067MM 17240.46446821 .00017278 00000-0 24061-3 0 9998
2 42732 51.6394 36.8146 0007505 167.0136 193.1050 15.57020208 14595
1 42732U 98067MM 17239.43753565 .00015487 00000-0 21669-3 0 9990
2 42732 51.6393 41.9560 0007574 163.0894 197.0352 15.56985579 14435
1 42732U 98067MM 17238.85987683 .00015222 00000-0 21326-3 0 9992
2 42732 51.6392 44.8479 0007627 160.8915 199.2364 15.56966647 14345
1 42732U 98067MM 17238.53895231 .00014879 00000-0 20870-3 0 9994
2 42732 51.6391 46.4546 0007645 159.6278 200.5021 15.56955947 14296
1 42732U 98067MM 17238.47476717 .00015108 00000-0 21181-3 0 9993
2 42732 51.6391 46.7759 0007649 159.2972 200.8331 15.56954008 14289
1 42732U 98067MM 17238.08965428 .00016547 00000-0 23138-3 0 9994
2 42732 51.6390 48.7037 0007691 157.8874 202.2451 15.56943280 14224
1 42732U 98067MM 17237.83291095 .00016134 00000-0 22587-3 0 9997
2 42732 51.6390 49.9891 0007705 156.9745 203.1593 15.56933839 14189
1 42732U 98067MM 17236.99848483 .00019949 00000-0 27780-3 0 9999
2 42732 51.6388 54.1662 0007764 153.7871 206.3515 15.56907564 14051
1 42732U 98067MM 17236.87011034 .00020319 00000-0 28287-3 0 9996
2 42732 51.6389 54.8090 0007770 153.3372 206.8021 15.56902224 14036
1 42732U 98067MM 17235.52215105 .00018265 00000-0 25562-3 0 9992
2 42732 51.6386 61.5567 0007891 148.1928 211.9542 15.56838839 13821
1 42732U 98067MM 17235.13700975 .00019180 00000-0 26818-3 0 9995
2 42732 51.6387 63.4846 0007916 146.6978 213.4513 15.56824969 13766
1 42732U 98067MM 17233.91737044 .00015752 00000-0 22192-3 0 9998
2 42732 51.6385 69.5897 0008030 142.3446 217.8110 15.56780944 13572
1 42732U 98067MM 17232.82608796 .00019500 00000-0 27333-3 0 9995
2 42732 51.6387 75.0519 0008096 138.2767 221.8843 15.56743985 13403
1 42732U 98067MM 17232.56931152 .00019616 00000-0 27502-3 0 9997
2 42732 51.6387 76.3370 0008115 137.3249 222.8374 15.56733661 13364
1 42732U 98067MM 17231.79897184 .00018160 00000-0 25545-3 0 9995
2 42732 51.6389 80.1924 0008162 134.4115 225.7546 15.56702359 13246 
1 42732U 98067MM 17231.47799230 .00018332 00000-0 25791-3 0 9997
2 42732 51.6390 81.7988 0008191 133.1585 227.0093 15.56691202 13194
1 42732U 98067MM 17231.15701030 .00017589 00000-0 24786-3 0 9999
2 42732 51.6390 83.4050 0008210 132.0518 228.1173 15.56679696 13148
1 42732U 98067MM 17230.83602641 .00015747 00000-0 22278-3 0 9999
2 42732 51.6391 85.0113 0008234 130.8740 229.2966 15.56665821 13097
1 42732U 98067MM 17230.51503972 .00015511 00000-0 21964-3 0 9991
2 42732 51.6391 86.6175 0008252 129.5376 230.6346 15.56654591 13047
1 42732U 98067MM 17230.00145636 .00016743 00000-0 23664-3 0 9991
2 42732 51.6392 89.1874 0008270 127.6854 232.4889 15.56638890 12968
1 42732U 98067MM 17229.87305978 .00015109 00000-0 21431-3 0 9996
2 42732 51.6392 89.8299 0008275 127.2840 232.8907 15.56632752 12946
1 42732U 98067MM 17229.23106997 .00011600 00000-0 16633-3 0 9996
2 42732 51.6392 93.0419 0008323 125.0648 235.1125 15.56612684 12842
1 42732U 98067MM 17229.03847187 .00011833 00000-0 16956-3 0 9993
2 42732 51.6391 94.0057 0008324 124.3036 235.8744 15.56608197 12819
1 42732U 98067MM 17228.65327319 .00010176 00000-0 14686-3 0 9997
2 42732 51.6390 95.9330 0008346 122.8622 237.3174 15.56598991 12757
1 42732U 98067MM 17228.01127087 .00009454 00000-0 13700-3 0 9990
2 42732 51.6392 99.1450 0008367 120.5165 239.6654 15.56586634 12656
1 42732U 98067MM 17226.85565480 .00010959 00000-0 15781-3 0 9996
2 42732 51.6389 104.9271 0008410 116.4019 243.7836 15.56563549 12477
1 42732U 98067MM 17226.08523388 +.00012885 +00000-0 +18440-3 0 9997
2 42732 051.6387 108.7820 0008446 113.5938 246.5941 15.56547382012356
1 42732U 98067MM 17225.31480390 .00012380 00000-0 17757-3 0 9997
2 42732 51.6386 112.6366 0008493 110.7940 249.3962 15.56528394 12231
1 42732U 98067MM 17224.09493803 .00010816 00000-0 15621-3 0 9994
2 42732 51.6387 118.7400 0008535 105.9872 254.2060 15.56498255 12040
1 42732U 98067MM 17223.77391643 .00010206 00000-0 14785-3 0 9990
2 42732 51.6387 120.3458 0008545 105.2845 254.9091 15.56490850 11993 
1 42732U 98067MM 17222.81084398 .00010399 00000-0 15062-3 0 9992
2 42732 51.6391 125.1638 0008562 101.7059 258.4894 15.56470476 11844
1 42732U 98067MM 17221.91196469 +.00008722 +00000-0 +12757-3 0 9990
2 42732 051.6393 129.6606 0008575 098.4389 261.7575 15.56450287011708
1 42732U 98067MM 17219.21526333 .00012431 00000-0 17916-3 0 9991
2 42732 51.6391 143.1498 0008622 88.6154 271.5825 15.56393325 11289
1 42732U 98067MM 17210.16114286 .00009767 00000-0 14345-3 0 9997
2 42732 51.6382 188.4303 0008712 55.1729 305.0081 15.56170167 9879
1 42732U 98067MM 17203.54642251 .00010866 00000-0 15962-3 0 9997
2 42732 51.6375 221.5040 0008673 31.0794 329.0709 15.56027358 8841
1 42732U 98067MM 17202.45461208 .00007655 00000-0 11468-3 0 9996
2 42732 51.6378 226.9625 0008646 27.1596 332.9846 15.56000788 8672
1 42732U 98067MM 17202.26193780 .00007564 00000-0 11342-3 0 9992
2 42732 51.6379 227.9257 0008630 26.4156 333.7274 15.55997282 8646
1 42732U 98067MM 17197.50913694 .00009739 00000-0 14473-3 0 9990
2 42732 51.6387 251.6835 0008434 9.0728 351.0414 15.55852950 7904
1 42732U 98067MM 17194.81139886 .00009408 00000-0 14030-3 0 9996
2 42732 51.6386 265.1668 0008383 359.0190 1.0784 15.55806320 7486 